[{"OBJECT_NAME":"GONETS-M 22","OBJECT_ID":"2020-091C","EPOCH":"2026-03-09T22:36:19.168992","MEAN_MOTION":12.42887547,"ECCENTRICITY":0.00227608,"INCLINATION":82.5083,"RA_OF_ASC_NODE":3.7455,"ARG_OF_PERICENTER":33.9218,"MEAN_ANOMALY":326.3312,"EPHEMERIS_TYPE":0,"CLASSIFICATION_TYPE":"U","NORAD_CAT_ID":47229,"ELEMENT_SET_NO":999,"REV_AT_EPOCH":23869,"BSTAR":1.56283e-7,"MEAN_MOTION_DOT":1.0e-7,"MEAN_MOTION_DDOT":0},{"OBJECT_NAME":"H-1 R\/B(MABES)","OBJECT_ID":"1986-061C","EPOCH":"2026-03-09T22:30:55.882656","MEAN_MOTION":12.32654758,"ECCENTRICITY":0.0072866,"INCLINATION":50.0076,"RA_OF_ASC_NODE":355.1929,"ARG_OF_PERICENTER":24.5632,"MEAN_ANOMALY":61.6234,"EPHEMERIS_TYPE":0,"CLASSIFICATION_TYPE":"U","NORAD_CAT_ID":16910,"ELEMENT_SET_NO":999,"REV_AT_EPOCH":78220,"BSTAR":0.00022256056,"MEAN_MOTION_DOT":-6.7e-7,"MEAN_MOTION_DDOT":0}]
